{
  "type": "FeatureCollection",
  "features": [
    {
      "type": "Feature",
      "properties": {
        "norad_id": 36420,
        "name": "COSMOS 2251 DEB",
        "group": "cosmos-2251-debris",
        "lat": 28.742512072550877,
        "lon": 61.415111470741984,
        "alt_km": 780.1617876860155,
        "timestamp": "2025-12-26T08:37:54.976849+00:00",
        "meta_object_name": "COSMOS 2251 DEB",
        "meta_object_id": "1993-036AZT",
        "meta_epoch": "2025-12-21T02:55:38.256384",
        "meta_mean_motion": 14.36907864,
        "meta_eccentricity": 0.00184562,
        "meta_inclination": 74.0376,
        "meta_ra_of_asc_node": 260.0713,
        "meta_arg_of_pericenter": 346.0954,
        "meta_mean_anomaly": 80.7548,
        "meta_ephemeris_type": 0,
        "meta_classification_type": "U",
        "meta_norad_cat_id": 36420,
        "meta_element_set_no": 999,
        "meta_rev_at_epoch": 85157,
        "meta_bstar": 0.00010545411,
        "meta_mean_motion_dot": 2.86e-06,
        "meta_mean_motion_ddot": 0,
        "tle_line1": "1 36420U 93036AZT 25355.12197056  .00000286  00000+0  10545-3 0  9990",
        "tle_line2": "2 36420  74.0376 260.0713 0018456 346.0954  80.7548 14.36907864851574"
      },
      "geometry": {
        "type": "Point",
        "coordinates": [
          61.415111470741984,
          28.742512072550877
        ]
      }
    },
    {
      "type": "Feature",
      "properties": {
        "norad_id": 36430,
        "name": "COSMOS 2251 DEB",
        "group": "cosmos-2251-debris",
        "lat": 73.04377349811342,
        "lon": 153.99345993070858,
        "alt_km": 850.252097081021,
        "timestamp": "2025-12-26T08:37:54.976859+00:00",
        "meta_object_name": "COSMOS 2251 DEB",
        "meta_object_id": "1993-036BAD",
        "meta_epoch": "2025-12-22T23:31:00.132096",
        "meta_mean_motion": 14.27817368,
        "meta_eccentricity": 0.00978453,
        "meta_inclination": 74.0045,
        "meta_ra_of_asc_node": 89.9408,
        "meta_arg_of_pericenter": 238.1166,
        "meta_mean_anomaly": 121.0434,
        "meta_ephemeris_type": 0,
        "meta_classification_type": "U",
        "meta_norad_cat_id": 36430,
        "meta_element_set_no": 999,
        "meta_rev_at_epoch": 64703,
        "meta_bstar": 0.00047484504,
        "meta_mean_motion_dot": 1.209e-05,
        "meta_mean_motion_ddot": 0,
        "tle_line1": "1 36430U 93036BAD 25356.97986264  .00001209  00000+0  47485-3 0  9991",
        "tle_line2": "2 36430  74.0045  89.9408 0097845 238.1166 121.0434 14.27817368647038"
      },
      "geometry": {
        "type": "Point",
        "coordinates": [
          153.99345993070858,
          73.04377349811342
        ]
      }
    },
    {
      "type": "Feature",
      "properties": {
        "norad_id": 36437,
        "name": "COSMOS 2251 DEB",
        "group": "cosmos-2251-debris",
        "lat": 34.57320807809132,
        "lon": 18.86041007671571,
        "alt_km": 670.9130627189506,
        "timestamp": "2025-12-26T08:37:54.976870+00:00",
        "meta_object_name": "COSMOS 2251 DEB",
        "meta_object_id": "1993-036BAL",
        "meta_epoch": "2025-12-20T18:36:38.364192",
        "meta_mean_motion": 14.70810572,
        "meta_eccentricity": 0.00231641,
        "meta_inclination": 73.942,
        "meta_ra_of_asc_node": 18.3096,
        "meta_arg_of_pericenter": 249.5495,
        "meta_mean_anomaly": 110.3188,
        "meta_ephemeris_type": 0,
        "meta_classification_type": "U",
        "meta_norad_cat_id": 36437,
        "meta_element_set_no": 999,
        "meta_rev_at_epoch": 66169,
        "meta_bstar": 0.00075908188,
        "meta_mean_motion_dot": 4.626e-05,
        "meta_mean_motion_ddot": 0,
        "tle_line1": "1 36437U 93036BAL 25354.77544403  .00004626  00000+0  75908-3 0  9996",
        "tle_line2": "2 36437  73.9420  18.3096 0023164 249.5495 110.3188 14.70810572661696"
      },
      "geometry": {
        "type": "Point",
        "coordinates": [
          18.86041007671571,
          34.57320807809132
        ]
      }
    },
    {
      "type": "Feature",
      "properties": {
        "norad_id": 36439,
        "name": "COSMOS 2251 DEB",
        "group": "cosmos-2251-debris",
        "lat": 60.07270990677897,
        "lon": 44.9427566537246,
        "alt_km": 1006.9670605849014,
        "timestamp": "2025-12-26T08:37:54.976880+00:00",
        "meta_object_name": "COSMOS 2251 DEB",
        "meta_object_id": "1993-036BAN",
        "meta_epoch": "2025-12-24T18:55:29.525952",
        "meta_mean_motion": 13.47827423,
        "meta_eccentricity": 0.04286024,
        "meta_inclination": 73.9682,
        "meta_ra_of_asc_node": 17.4852,
        "meta_arg_of_pericenter": 346.947,
        "meta_mean_anomaly": 12.0809,
        "meta_ephemeris_type": 0,
        "meta_classification_type": "U",
        "meta_norad_cat_id": 36439,
        "meta_element_set_no": 999,
        "meta_rev_at_epoch": 58775,
        "meta_bstar": 0.001418873,
        "meta_mean_motion_dot": 1.511e-05,
        "meta_mean_motion_ddot": 0,
        "tle_line1": "1 36439U 93036BAN 25358.78853618  .00001511  00000+0  14189-2 0  9997",
        "tle_line2": "2 36439  73.9682  17.4852 0428602 346.9470  12.0809 13.47827423587757"
      },
      "geometry": {
        "type": "Point",
        "coordinates": [
          44.9427566537246,
          60.07270990677897
        ]
      }
    },
    {
      "type": "Feature",
      "properties": {
        "norad_id": 36441,
        "name": "COSMOS 2251 DEB",
        "group": "cosmos-2251-debris",
        "lat": 68.28716556922554,
        "lon": 94.6824301489639,
        "alt_km": 487.242593258904,
        "timestamp": "2025-12-26T08:37:54.976890+00:00",
        "meta_object_name": "COSMOS 2251 DEB",
        "meta_object_id": "1993-036BAQ",
        "meta_epoch": "2025-12-24T06:47:11.580288",
        "meta_mean_motion": 15.06947099,
        "meta_eccentricity": 0.01081187,
        "meta_inclination": 73.8372,
        "meta_ra_of_asc_node": 325.7458,
        "meta_arg_of_pericenter": 62.0973,
        "meta_mean_anomaly": 299.1114,
        "meta_ephemeris_type": 0,
        "meta_classification_type": "U",
        "meta_norad_cat_id": 36441,
        "meta_element_set_no": 999,
        "meta_rev_at_epoch": 87139,
        "meta_bstar": 0.00056857521,
        "meta_mean_motion_dot": 9.688e-05,
        "meta_mean_motion_ddot": 0,
        "tle_line1": "1 36441U 93036BAQ 25358.28277292  .00009688  00000+0  56858-3 0  9996",
        "tle_line2": "2 36441  73.8372 325.7458 0108118  62.0973 299.1114 15.06947099871395"
      },
      "geometry": {
        "type": "Point",
        "coordinates": [
          94.6824301489639,
          68.28716556922554
        ]
      }
    },
    {
      "type": "Feature",
      "properties": {
        "norad_id": 36442,
        "name": "COSMOS 2251 DEB",
        "group": "cosmos-2251-debris",
        "lat": 33.52624062692694,
        "lon": 21.030458859205954,
        "alt_km": 461.70680273361995,
        "timestamp": "2025-12-26T08:37:54.976900+00:00",
        "meta_object_name": "COSMOS 2251 DEB",
        "meta_object_id": "1993-036BAR",
        "meta_epoch": "2025-12-21T18:51:31.867200",
        "meta_mean_motion": 15.32486394,
        "meta_eccentricity": 0.00080169,
        "meta_inclination": 73.9482,
        "meta_ra_of_asc_node": 19.8637,
        "meta_arg_of_pericenter": 316.0651,
        "meta_mean_anomaly": 43.9914,
        "meta_ephemeris_type": 0,
        "meta_classification_type": "U",
        "meta_norad_cat_id": 36442,
        "meta_element_set_no": 999,
        "meta_rev_at_epoch": 86054,
        "meta_bstar": 0.0050536247,
        "meta_mean_motion_dot": 0.00162161,
        "meta_mean_motion_ddot": 0,
        "tle_line1": "1 36442U 93036BAR 25355.78578550  .00162161  00000+0  50536-2 0  9992",
        "tle_line2": "2 36442  73.9482  19.8637 0008016 316.0651  43.9914 15.32486394860543"
      },
      "geometry": {
        "type": "Point",
        "coordinates": [
          21.030458859205954,
          33.52624062692694
        ]
      }
    },
    {
      "type": "Feature",
      "properties": {
        "norad_id": 36451,
        "name": "COSMOS 2251 DEB",
        "group": "cosmos-2251-debris",
        "lat": 44.61021180893662,
        "lon": 114.28705714810107,
        "alt_km": 693.1477000736313,
        "timestamp": "2025-12-26T08:37:54.976910+00:00",
        "meta_object_name": "COSMOS 2251 DEB",
        "meta_object_id": "1993-036BBA",
        "meta_epoch": "2025-12-17T15:51:47.903904",
        "meta_mean_motion": 14.18761243,
        "meta_eccentricity": 0.01833733,
        "meta_inclination": 73.9538,
        "meta_ra_of_asc_node": 326.3887,
        "meta_arg_of_pericenter": 149.6881,
        "meta_mean_anomaly": 211.5024,
        "meta_ephemeris_type": 0,
        "meta_classification_type": "U",
        "meta_norad_cat_id": 36451,
        "meta_element_set_no": 999,
        "meta_rev_at_epoch": 84295,
        "meta_bstar": 0.0004725236,
        "meta_mean_motion_dot": 1.135e-05,
        "meta_mean_motion_ddot": 0,
        "tle_line1": "1 36451U 93036BBA 25351.66097111  .00001135  00000+0  47252-3 0  9999",
        "tle_line2": "2 36451  73.9538 326.3887 0183373 149.6881 211.5024 14.18761243842955"
      },
      "geometry": {
        "type": "Point",
        "coordinates": [
          114.28705714810107,
          44.61021180893662
        ]
      }
    }
  ]
}